{
  "type": "FeatureCollection",
  "features": [
    {
      "type": "Feature",
      "properties": {
        "norad_id": 54259,
        "name": "EUTELSAT 10B",
        "group": "eutelsat",
        "lat": 0.05847601710440863,
        "lon": 161.915827948387,
        "alt_km": 35782.82948915508,
        "timestamp": "2025-12-22T04:03:38.833437+00:00",
        "meta_object_name": "EUTELSAT 10B",
        "meta_object_id": "2022-157A",
        "meta_epoch": "2025-12-21T18:22:48.901728",
        "meta_mean_motion": 1.00275334,
        "meta_eccentricity": 9.11e-05,
        "meta_inclination": 0.0592,
        "meta_ra_of_asc_node": 97.7142,
        "meta_arg_of_pericenter": 9.4258,
        "meta_mean_anomaly": 269.1639,
        "meta_ephemeris_type": 0,
        "meta_classification_type": "U",
        "meta_norad_cat_id": 54259,
        "meta_element_set_no": 999,
        "meta_rev_at_epoch": 1124,
        "meta_bstar": 0,
        "meta_mean_motion_dot": 9.1e-07,
        "meta_mean_motion_ddot": 0,
        "tle_line1": "1 54259U 22157A   25355.76584377  .00000091  00000+0  00000+0 0  9997",
        "tle_line2": "2 54259   0.0592  97.7142 0000911   9.4258 269.1639  1.00275334 11241"
      },
      "geometry": {
        "type": "Point",
        "coordinates": [
          161.915827948387,
          0.05847601710440863
        ]
      }
    },
    {
      "type": "Feature",
      "properties": {
        "norad_id": 59346,
        "name": "EUTELSAT 36D",
        "group": "eutelsat",
        "lat": 0.011056765044500436,
        "lon": -172.26515389661,
        "alt_km": 35787.72301283774,
        "timestamp": "2025-12-22T04:03:38.833448+00:00",
        "meta_object_name": "EUTELSAT 36D",
        "meta_object_id": "2024-059A",
        "meta_epoch": "2025-12-21T11:39:26.603712",
        "meta_mean_motion": 1.00272156,
        "meta_eccentricity": 4.384e-05,
        "meta_inclination": 0.0244,
        "meta_ra_of_asc_node": 29.7996,
        "meta_arg_of_pericenter": 338.8651,
        "meta_mean_anomaly": 292.3516,
        "meta_ephemeris_type": 0,
        "meta_classification_type": "U",
        "meta_norad_cat_id": 59346,
        "meta_element_set_no": 999,
        "meta_rev_at_epoch": 636,
        "meta_bstar": 0,
        "meta_mean_motion_dot": 0,
        "meta_mean_motion_ddot": 0,
        "tle_line1": "1 59346U 24059A   25355.48572458  .00000000  00000+0  00000+0 0  9998",
        "tle_line2": "2 59346   0.0244  29.7996 0000438 338.8651 292.3516  1.00272156  6367"
      },
      "geometry": {
        "type": "Point",
        "coordinates": [
          -172.26515389661,
          0.011056765044500436
        ]
      }
    }
  ]
}